ONEWEB-0189             
1 48217U 21031H   26043.17772679  .00000061  00000+0  12883-3 0  9991
2 48217  87.9020 314.6230 0001795  88.3759 271.7576 13.14504159231803
ONEWEB-0196             
1 48218U 21031J   26043.23163128 -.00000171  00000+0 -49676-3 0  9996
2 48218  87.9022 314.6236 0001775  81.6202 278.5129 13.14504752231818
ONEWEB-0183             
1 48219U 21031K   26043.20626879 -.00000558  00000+0 -15393-2 0  9998
2 48219  87.9014 314.6292 0001803  73.7751 286.3577 13.14507523231908
ONEWEB-0185             
1 48220U 21031L   26043.23243594 -.00000190  00000+0 -54651-3 0  9995
2 48220  87.9029 314.6086 0002125  77.7704 282.3664 13.14504034231836
ONEWEB-0187             
1 48221U 21031M   26043.21247830  .00000098  00000+0  23081-3 0  9999
2 48221  87.9018 314.6473 0001908  81.5706 278.5640 13.14503752231846
ONEWEB-0192             
1 48222U 21031N   26043.10636626 -.00000040  00000+0 -14199-3 0  9992
2 48222  87.9012 314.6576 0001686  80.9912 279.1409 13.14502746231741
ONEWEB-0219             
1 48223U 21031P   26043.23798429 -.00000190  00000+0 -54737-3 0  9995
2 48223  87.9023 314.6146 0001984  79.5088 280.6266 13.14504010231964
ONEWEB-0202             
1 48224U 21031Q   26043.21895780  .00000016  00000+0  78027-5 0  9997
2 48224  87.9022 314.6268 0001792 103.8828 256.2501 13.14503509231940
ONEWEB-0204             
1 48225U 21031R   26043.17692006 -.00000244  00000+0 -69222-3 0  9999
2 48225  87.9015 314.6277 0001939  69.2616 290.8721 13.14502817231833
ONEWEB-0205             
1 48226U 21031S   26043.22847100 -.00000150  00000+0 -43999-3 0  9992
2 48226  87.9026 314.6110 0001874  79.7650 280.3691 13.14504381231854
ONEWEB-0206             
1 48227U 21031T   26043.20150643  .00000283  00000+0  73009-3 0  9990
2 48227  87.9035 314.6139 0001418  76.1967 283.9321 13.14504899231800
ONEWEB-0182             
1 48228U 21031U   26043.19675615  .00000341  00000+0  88490-3 0  9995
2 48228  87.9019 314.6310 0001841  73.5437 286.5895 13.14504012232013
ONEWEB-0186             
1 48229U 21031V   26043.20784487  .00000235  00000+0  60058-3 0  9998
2 48229  87.9029 314.6147 0001773  81.0151 279.1180 13.14505477231968
ONEWEB-0181             
1 48230U 21031W   26043.18565616  .00000148  00000+0  36460-3 0  9991
2 48230  87.9010 314.6640 0001775  83.3769 276.7563 13.14504413231811
ONEWEB-0188             
1 48231U 21031X   26043.22371138 -.00000125  00000+0 -37131-3 0  9994
2 48231  87.9016 314.6537 0001795  74.3900 285.7427 13.14502497231721
ONEWEB-0220             
1 48232U 21031Y   26043.18723646  .00000238  00000+0  60655-3 0  9995
2 48232  87.9026 314.6178 0001959  79.8121 280.3230 13.14503707231987
