[{"OBJECT_NAME":"ONEWEB-0189","OBJECT_ID":"2021-031H","EPOCH":"2026-02-12T04:15:55.594656","MEAN_MOTION":13.14504159,"ECCENTRICITY":0.00017955,"INCLINATION":87.902,"RA_OF_ASC_NODE":314.623,"ARG_OF_PERICENTER":88.3759,"MEAN_ANOMALY":271.7576,"EPHEMERIS_TYPE":0,"CLASSIFICATION_TYPE":"U","NORAD_CAT_ID":48217,"ELEMENT_SET_NO":999,"REV_AT_EPOCH":23180,"BSTAR":0.00012883186,"MEAN_MOTION_DOT":6.1e-7,"MEAN_MOTION_DDOT":0},{"OBJECT_NAME":"ONEWEB-0196","OBJECT_ID":"2021-031J","EPOCH":"2026-02-12T05:33:32.942592","MEAN_MOTION":13.14504752,"ECCENTRICITY":0.00017755,"INCLINATION":87.9022,"RA_OF_ASC_NODE":314.6236,"ARG_OF_PERICENTER":81.6202,"MEAN_ANOMALY":278.5129,"EPHEMERIS_TYPE":0,"CLASSIFICATION_TYPE":"U","NORAD_CAT_ID":48218,"ELEMENT_SET_NO":999,"REV_AT_EPOCH":23181,"BSTAR":-0.00049676305,"MEAN_MOTION_DOT":-1.71e-6,"MEAN_MOTION_DDOT":0},{"OBJECT_NAME":"ONEWEB-0183","OBJECT_ID":"2021-031K","EPOCH":"2026-02-12T04:57:01.623456","MEAN_MOTION":13.14507523,"ECCENTRICITY":0.00018033,"INCLINATION":87.9014,"RA_OF_ASC_NODE":314.6292,"ARG_OF_PERICENTER":73.7751,"MEAN_ANOMALY":286.3577,"EPHEMERIS_TYPE":0,"CLASSIFICATION_TYPE":"U","NORAD_CAT_ID":48219,"ELEMENT_SET_NO":999,"REV_AT_EPOCH":23190,"BSTAR":-0.001539292,"MEAN_MOTION_DOT":-5.58e-6,"MEAN_MOTION_DDOT":0},{"OBJECT_NAME":"ONEWEB-0185","OBJECT_ID":"2021-031L","EPOCH":"2026-02-12T05:34:42.465216","MEAN_MOTION":13.14504034,"ECCENTRICITY":0.00021257,"INCLINATION":87.9029,"RA_OF_ASC_NODE":314.6086,"ARG_OF_PERICENTER":77.7704,"MEAN_ANOMALY":282.3664,"EPHEMERIS_TYPE":0,"CLASSIFICATION_TYPE":"U","NORAD_CAT_ID":48220,"ELEMENT_SET_NO":999,"REV_AT_EPOCH":23183,"BSTAR":-0.00054651426,"MEAN_MOTION_DOT":-1.9e-6,"MEAN_MOTION_DDOT":0},{"OBJECT_NAME":"ONEWEB-0187","OBJECT_ID":"2021-031M","EPOCH":"2026-02-12T05:05:58.125120","MEAN_MOTION":13.14503752,"ECCENTRICITY":0.00019086,"INCLINATION":87.9018,"RA_OF_ASC_NODE":314.6473,"ARG_OF_PERICENTER":81.5706,"MEAN_ANOMALY":278.564,"EPHEMERIS_TYPE":0,"CLASSIFICATION_TYPE":"U","NORAD_CAT_ID":48221,"ELEMENT_SET_NO":999,"REV_AT_EPOCH":23184,"BSTAR":0.00023080905,"MEAN_MOTION_DOT":9.8e-7,"MEAN_MOTION_DDOT":0},{"OBJECT_NAME":"ONEWEB-0192","OBJECT_ID":"2021-031N","EPOCH":"2026-02-12T02:33:10.044864","MEAN_MOTION":13.14502746,"ECCENTRICITY":0.00016867,"INCLINATION":87.9012,"RA_OF_ASC_NODE":314.6576,"ARG_OF_PERICENTER":80.9912,"MEAN_ANOMALY":279.1409,"EPHEMERIS_TYPE":0,"CLASSIFICATION_TYPE":"U","NORAD_CAT_ID":48222,"ELEMENT_SET_NO":999,"REV_AT_EPOCH":23174,"BSTAR":-0.00014199478,"MEAN_MOTION_DOT":-4.0e-7,"MEAN_MOTION_DDOT":0},{"OBJECT_NAME":"ONEWEB-0219","OBJECT_ID":"2021-031P","EPOCH":"2026-02-12T05:42:41.842656","MEAN_MOTION":13.1450401,"ECCENTRICITY":0.00019842,"INCLINATION":87.9023,"RA_OF_ASC_NODE":314.6146,"ARG_OF_PERICENTER":79.5088,"MEAN_ANOMALY":280.6266,"EPHEMERIS_TYPE":0,"CLASSIFICATION_TYPE":"U","NORAD_CAT_ID":48223,"ELEMENT_SET_NO":999,"REV_AT_EPOCH":23196,"BSTAR":-0.00054736819,"MEAN_MOTION_DOT":-1.9e-6,"MEAN_MOTION_DDOT":0},{"OBJECT_NAME":"ONEWEB-0202","OBJECT_ID":"2021-031Q","EPOCH":"2026-02-12T05:15:17.953920","MEAN_MOTION":13.14503509,"ECCENTRICITY":0.0001792,"INCLINATION":87.9022,"RA_OF_ASC_NODE":314.6268,"ARG_OF_PERICENTER":103.8828,"MEAN_ANOMALY":256.2501,"EPHEMERIS_TYPE":0,"CLASSIFICATION_TYPE":"U","NORAD_CAT_ID":48224,"ELEMENT_SET_NO":999,"REV_AT_EPOCH":23194,"BSTAR":7.802715e-6,"MEAN_MOTION_DOT":1.6e-7,"MEAN_MOTION_DDOT":0},{"OBJECT_NAME":"ONEWEB-0204","OBJECT_ID":"2021-031R","EPOCH":"2026-02-12T04:14:45.893184","MEAN_MOTION":13.14502817,"ECCENTRICITY":0.00019393,"INCLINATION":87.9015,"RA_OF_ASC_NODE":314.6277,"ARG_OF_PERICENTER":69.2616,"MEAN_ANOMALY":290.8721,"EPHEMERIS_TYPE":0,"CLASSIFICATION_TYPE":"U","NORAD_CAT_ID":48225,"ELEMENT_SET_NO":999,"REV_AT_EPOCH":23183,"BSTAR":-0.00069222179,"MEAN_MOTION_DOT":-2.44e-6,"MEAN_MOTION_DDOT":0},{"OBJECT_NAME":"ONEWEB-0205","OBJECT_ID":"2021-031S","EPOCH":"2026-02-12T05:28:59.894400","MEAN_MOTION":13.14504381,"ECCENTRICITY":0.00018745,"INCLINATION":87.9026,"RA_OF_ASC_NODE":314.611,"ARG_OF_PERICENTER":79.765,"MEAN_ANOMALY":280.3691,"EPHEMERIS_TYPE":0,"CLASSIFICATION_TYPE":"U","NORAD_CAT_ID":48226,"ELEMENT_SET_NO":999,"REV_AT_EPOCH":23185,"BSTAR":-0.00043998803,"MEAN_MOTION_DOT":-1.5e-6,"MEAN_MOTION_DDOT":0},{"OBJECT_NAME":"ONEWEB-0206","OBJECT_ID":"2021-031T","EPOCH":"2026-02-12T04:50:10.155552","MEAN_MOTION":13.14504899,"ECCENTRICITY":0.00014186,"INCLINATION":87.9035,"RA_OF_ASC_NODE":314.6139,"ARG_OF_PERICENTER":76.1967,"MEAN_ANOMALY":283.9321,"EPHEMERIS_TYPE":0,"CLASSIFICATION_TYPE":"U","NORAD_CAT_ID":48227,"ELEMENT_SET_NO":999,"REV_AT_EPOCH":23180,"BSTAR":0.00073009211,"MEAN_MOTION_DOT":2.83e-6,"MEAN_MOTION_DDOT":0},{"OBJECT_NAME":"ONEWEB-0182","OBJECT_ID":"2021-031U","EPOCH":"2026-02-12T04:43:19.731360","MEAN_MOTION":13.14504012,"ECCENTRICITY":0.00018419,"INCLINATION":87.9019,"RA_OF_ASC_NODE":314.631,"ARG_OF_PERICENTER":73.5437,"MEAN_ANOMALY":286.5895,"EPHEMERIS_TYPE":0,"CLASSIFICATION_TYPE":"U","NORAD_CAT_ID":48228,"ELEMENT_SET_NO":999,"REV_AT_EPOCH":23201,"BSTAR":0.00088489635,"MEAN_MOTION_DOT":3.41e-6,"MEAN_MOTION_DDOT":0},{"OBJECT_NAME":"ONEWEB-0186","OBJECT_ID":"2021-031V","EPOCH":"2026-02-12T04:59:17.796768","MEAN_MOTION":13.14505477,"ECCENTRICITY":0.00017734,"INCLINATION":87.9029,"RA_OF_ASC_NODE":314.6147,"ARG_OF_PERICENTER":81.0151,"MEAN_ANOMALY":279.118,"EPHEMERIS_TYPE":0,"CLASSIFICATION_TYPE":"U","NORAD_CAT_ID":48229,"ELEMENT_SET_NO":999,"REV_AT_EPOCH":23196,"BSTAR":0.00060057652,"MEAN_MOTION_DOT":2.35e-6,"MEAN_MOTION_DDOT":0},{"OBJECT_NAME":"ONEWEB-0181","OBJECT_ID":"2021-031W","EPOCH":"2026-02-12T04:27:20.692224","MEAN_MOTION":13.14504413,"ECCENTRICITY":0.00017757,"INCLINATION":87.901,"RA_OF_ASC_NODE":314.664,"ARG_OF_PERICENTER":83.3769,"MEAN_ANOMALY":276.7563,"EPHEMERIS_TYPE":0,"CLASSIFICATION_TYPE":"U","NORAD_CAT_ID":48230,"ELEMENT_SET_NO":999,"REV_AT_EPOCH":23181,"BSTAR":0.00036459624,"MEAN_MOTION_DOT":1.48e-6,"MEAN_MOTION_DDOT":0},{"OBJECT_NAME":"ONEWEB-0188","OBJECT_ID":"2021-031X","EPOCH":"2026-02-12T05:22:08.663232","MEAN_MOTION":13.14502497,"ECCENTRICITY":0.00017954,"INCLINATION":87.9016,"RA_OF_ASC_NODE":314.6537,"ARG_OF_PERICENTER":74.39,"MEAN_ANOMALY":285.7427,"EPHEMERIS_TYPE":0,"CLASSIFICATION_TYPE":"U","NORAD_CAT_ID":48231,"ELEMENT_SET_NO":999,"REV_AT_EPOCH":23172,"BSTAR":-0.00037130856,"MEAN_MOTION_DOT":-1.25e-6,"MEAN_MOTION_DDOT":0},{"OBJECT_NAME":"ONEWEB-0220","OBJECT_ID":"2021-031Y","EPOCH":"2026-02-12T04:29:37.230144","MEAN_MOTION":13.14503707,"ECCENTRICITY":0.00019593,"INCLINATION":87.9026,"RA_OF_ASC_NODE":314.6178,"ARG_OF_PERICENTER":79.8121,"MEAN_ANOMALY":280.323,"EPHEMERIS_TYPE":0,"CLASSIFICATION_TYPE":"U","NORAD_CAT_ID":48232,"ELEMENT_SET_NO":999,"REV_AT_EPOCH":23198,"BSTAR":0.00060654941,"MEAN_MOTION_DOT":2.38e-6,"MEAN_MOTION_DDOT":0}]
